ordinal{string},comment{string},originator{string},norad_cat_id{string},object_name{string},object_type{string},classification_type{string},intldes{string},epoch{timestamp},epoch_microseconds{integer},mean_motion{decimal},eccentricity{decimal},inclination{decimal},ra_of_asc_node{decimal},arg_of_pericenter{decimal},mean_anomaly{decimal},ephemeris_type{string},element_set_no{string},rev_at_epoch{integer},bstar{decimal},mean_motion_dot{decimal},mean_motion_ddot{string},file{string},tle_line0{string},tle_line1{string},tle_line2{string},object_id{string},object_number{string},semimajor_axis{decimal},period{decimal},apogee{decimal},perigee{decimal}
1,GENERATED VIA SPACETRACK.ORG API,JSPOC,38861,SJ-9B,PAYLOAD,U,12056B,2019-02-22T11:13:14Z,271456,14.8136410600000001,0.00187199999999999997,97.7599000000000018,120.354200000000006,8.51970000000000027,351.63330000000002,0,999,34349,1.70390000000000007e-05,8.19999999999999984e-07,0,2414449,0 SJ-9B,1 38861U 12056B   19053.46752629  .00000082  00000-0  17039-4 0  9993,2 38861  97.7599 120.3542 0018720   8.5197 351.6333 14.81364106343490,2012-056B,38861,7003.15800000000036,97.2069999999999936,638.133000000000038,611.913000000000011
1,GENERATED VIA SPACETRACK.ORG API,JSPOC,42773,LEMUR 2 LUCYBRYCE,PAYLOAD,U,17036J,2019-02-22T11:13:22Z,592640,15.2212814400000003,0.0012446,97.3700999999999937,113.531899999999993,265.927999999999997,94.0533999999999963,0,999,9257,3.39659999999999997e-05,7.09999999999999978e-06,0,2414520,0 LEMUR 2 LUCYBRYCE,1 42773U 17036J   19053.46762260  .00000710  00000-0  33966-4 0  9990,2 42773  97.3701 113.5319 0012446 265.9280  94.0534 15.22128144 92572,2017-036J,42773,6877.5590000000002,94.6039999999999992,507.98399999999998,490.863999999999976
1,GENERATED VIA SPACETRACK.ORG API,JSPOC,38997,HJ-1C,PAYLOAD,U,12064A,2019-02-22T11:13:31Z,294848,15.4060697300000005,0.000919699999999999966,97.2023999999999972,86.672300000000007,324.934300000000007,170.544000000000011,0,999,35169,4.03020000000000014e-05,1.55999999999999997e-05,0,2414516,0 HJ-1C,1 38997U 12064A   19053.46772332  .00001560  00000-0  40302-4 0  9996,2 38997  97.2024  86.6723 0009197 324.9343 170.5440 15.40606973351694,2012-064A,38997,6822.45300000000043,93.4689999999999941,450.593000000000018,438.043999999999983
1,GENERATED VIA SPACETRACK.ORG API,JSPOC,40310,YAOGAN 24,PAYLOAD,U,14072A,2019-02-22T11:13:51Z,287808,14.7726127300000005,0.00156449999999999992,98.066599999999994,181.411100000000005,248.495499999999993,111.459299999999999,0,999,22955,1.32289999999999999e-05,4.09999999999999992e-07,0,2414398,0 YAOGAN 24,1 40310U 14072A   19053.46795472  .00000041  00000-0  13229-4 0  9990,2 40310  98.0666 181.4111 0015645 248.4955 111.4593 14.77261273229557,2014-072A,40310,7016.11899999999969,97.4770000000000039,648.961000000000013,627.006999999999948
1,GENERATED VIA SPACETRACK.ORG API,JSPOC,31395,NIGCOMSAT 1,PAYLOAD,U,07018A,2019-02-22T11:14:04Z,733376,1.00273216000000009,0.000326200000000000014,7.60989999999999966,49.7946000000000026,1.6664000000000001,17.2104999999999997,0,999,4326,0,-3.71000000000000005e-06,0,2414417,0 NIGCOMSAT 1,1 31395U 07018A   19053.46811034 -.00000371  00000-0  00000+0 0  9993,2 31395   7.6099  49.7946 0003262   1.6664  17.2105  1.00273216 43262,2007-018A,31395,42164.3300000000017,1436.07600000000002,35799.9490000000005,35772.4409999999989
1,GENERATED VIA SPACETRACK.ORG API,JSPOC,42962,IRIDIUM 136,PAYLOAD,U,17061H,2019-02-22T11:14:06Z,317088,14.3421597199999997,0.000233200000000000003,86.3936000000000064,61.7006999999999977,102.0595,258.086200000000019,0,999,7189,1.82740000000000016e-05,7.09999999999999978e-07,0,2414528,0 IRIDIUM 136,1 42962U 17061H   19053.46812867  .00000071  00000-0  18274-4 0  9992,2 42962  86.3936  61.7007 0002332 102.0595 258.0862 14.34215972 71897,2017-061H,42962,7155.8100000000004,100.403000000000006,779.342999999999961,776.005999999999972
1,GENERATED VIA SPACETRACK.ORG API,JSPOC,12442,COSMOS 1269,PAYLOAD,U,81041A,2019-02-22T11:14:11Z,338656,14.3219755600000003,0.000987299999999999983,74.0538999999999987,197.062299999999993,359.466099999999983,0.647700000000000053,0,999,97364,4.81990000000000022e-06,-1.29999999999999999e-07,0,2414463,0 COSMOS 1269,1 12442U 81041A   19053.46818679 -.00000013  00000-0  48199-5 0  9995,2 12442  74.0539 197.0623 0009873 359.4661   0.6477 14.32197556973648,1981-041A,12442,7162.53099999999995,100.543999999999997,791.467999999999961,777.325000000000045
1,GENERATED VIA SPACETRACK.ORG API,JSPOC,34941,SES 7 (PROTOSTAR 2),PAYLOAD,U,09027A,2019-02-22T11:14:12Z,270048,1.00274804999999989,0.000204699999999999988,0.0135999999999999992,110.309299999999993,189.82050000000001,128.716700000000003,0,999,3583,0,-3.67999999999999992e-06,0,2414421,0 SES 7 (PROTOSTAR 2),1 34941U 09027A   19053.46819757 -.00000368  00000-0  00000+0 0  9991,2 34941   0.0136 110.3093 0002047 189.8205 128.7167  1.00274805 35834,2009-027A,34941,42163.885000000002,1436.05300000000011,35794.3810000000012,35777.1189999999988
1,GENERATED VIA SPACETRACK.ORG API,JSPOC,43587,TELKOM-4,PAYLOAD,U,18064A,2019-02-22T11:14:12Z,270048,1.0026984000000001,0.000265900000000000012,0.0126000000000000001,117.119699999999995,266.1721,45.2824999999999989,0,999,207,0,-3.66000000000000011e-06,0,2414423,0 TELKOM-4,1 43587U 18064A   19053.46819757 -.00000366  00000-0  00000+0 0  9996,2 43587   0.0126 117.1197 0002659 266.1721  45.2825  1.00269840  2077,2018-064A,43587,42165.2770000000019,1436.12400000000002,35798.3530000000028,35775.9300000000003
1,GENERATED VIA SPACETRACK.ORG API,JSPOC,42730,SUSAT,PAYLOAD,U,98067MK,2019-02-22T11:14:21Z,579648,15.9817220899999999,0.000480799999999999977,51.6270000000000024,141.494900000000001,9.03619999999999912,351.073199999999986,0,999,9989,0.000426949999999999997,0.00199708000000000004,2.7382e-05,2414500,0 SUSAT,1 42730U 98067MK  19053.46830532  .00199708  27382-4  42695-3 0  9994,2 42730  51.6270 141.4949 0004808   9.0362 351.0732 15.98172209 99891,1998-067MK,42730,6657.6260000000002,90.1020000000000039,282.692000000000007,276.29000000000002
1,GENERATED VIA SPACETRACK.ORG API,JSPOC,37789,NIGERIASAT 2,PAYLOAD,U,11044B,2019-02-22T11:14:31Z,462080,14.6211277800000001,0.000944100000000000017,97.9649000000000001,115.665000000000006,261.963399999999979,98.0502999999999929,0,999,40092,5.18880000000000019e-06,-1.90000000000000007e-07,0,2414475,0 NIGERIASAT 2,1 37789U 11044B   19053.46841970 -.00000019  00000-0  51888-5 0  9997,2 37789  97.9649 115.6650 0009441 261.9634  98.0503 14.62112778400922,2011-044B,37789,7064.4970000000003,98.4869999999999948,693.030999999999949,679.692000000000007
1,GENERATED VIA SPACETRACK.ORG API,JSPOC,42982,KESTREL EYE 2M,PAYLOAD,U,98067NE,2019-02-22T11:14:34Z,613088,15.6081718299999999,0.000440100000000000018,51.6375000000000028,198.354099999999988,64.7691999999999979,295.375699999999995,0,999,7575,0.000100099999999999994,8.00000000000000065e-05,0,2414393,0 KESTREL EYE 2M,1 42982U 98067NE  19053.46845617  .00008000  00000-0  10010-3 0  9997,2 42982  51.6375 198.3541 0004401  64.7692 295.3757 15.60817183 75750,1998-067NE,42982,6763.43199999999979,92.2590000000000003,388.273000000000025,382.319999999999993
1,GENERATED VIA SPACETRACK.ORG API,JSPOC,37776,BSAT-3C,PAYLOAD,U,11041B,2019-02-22T11:14:42Z,420192,1.00273147000000007,2.15999999999999999e-05,0.0572000000000000008,294.614300000000014,293.399099999999976,202.691900000000004,0,999,2773,0,-3.72999999999999986e-06,0,2414429,0 BSAT-3C,1 37776U 11041B   19053.46854653 -.00000373  00000-0  00000+0 0  9999,2 37776   0.0572 294.6143 0000216 293.3991 202.6919  1.00273147 27733,2011-041B,37776,42164.3499999999985,1436.077,35787.125,35785.3039999999964
1,GENERATED VIA SPACETRACK.ORG API,JSPOC,39202,SJ-11-05,PAYLOAD,U,13035A,2019-02-22T11:14:43Z,541664,14.6054055500000004,0.00106700000000000002,98.355000000000004,224.887499999999989,326.184399999999982,33.8678000000000026,0,999,29885,1.94390000000000014e-05,4.5999999999999999e-07,0,2414502,0 SJ-11-05,1 39202U 13035A   19053.46855951  .00000046  00000-0  19439-4 0  9999,2 39202  98.3550 224.8875 0010670 326.1844  33.8678 14.60540555298858,2013-035A,39202,7069.5659999999998,98.5930000000000035,698.974000000000046,683.886999999999944
1,GENERATED VIA SPACETRACK.ORG API,JSPOC,24907,IRIDIUM 22,PAYLOAD,U,97043E,2019-02-22T11:15:03Z,243456,14.3428503799999998,0.000209299999999999992,86.4005999999999972,358.95859999999999,89.2900000000000063,270.853499999999997,0,999,12602,2.52139999999999995e-05,8.99999999999999959e-07,0,2414526,0 IRIDIUM 22,1 24907U 97043E   19053.46878754  .00000090  00000-0  25214-4 0  9999,2 24907  86.4006 358.9586 0002093  89.2900 270.8535 14.34285038126023,1997-043E,24907,7155.57999999999993,100.397999999999996,778.942999999999984,775.947000000000003
1,GENERATED VIA SPACETRACK.ORG API,JSPOC,6120,COSMOS 507,PAYLOAD,U,72057D,2019-02-22T11:15:08Z,381664,12.5261010099999996,0.00545049999999999962,74.0281999999999982,176.276299999999992,321.540900000000022,102.721999999999994,0,999,13070,2.21860000000000007e-05,-1.29999999999999999e-07,0,2414473,0 COSMOS 507,1  6120U 72057D   19053.46884701 -.00000013  00000-0  22186-4 0  9994,2  6120  74.0282 176.2763 0054505 321.5409 102.7220 12.52610101130703,1972-057D,6120,7831.73300000000017,114.959000000000003,1496.28500000000008,1410.91100000000006
1,GENERATED VIA SPACETRACK.ORG API,JSPOC,39731,KAZEOSAT 1,PAYLOAD,U,14024A,2019-02-22T11:15:20Z,964096,14.42034211,0.000142800000000000002,98.3641999999999967,132.366000000000014,74.2038000000000011,285.931100000000015,0,999,25356,6.13109999999999963e-06,-2.29999999999999995e-07,0,2414435,0 KAZEOSAT 1,1 39731U 14024A   19053.46899264 -.00000023  00000-0  61311-5 0  9993,2 39731  98.3642 132.3660 0001428  74.2038 285.9311 14.42034211253569,2014-024A,39731,7129.92199999999957,99.8580000000000041,752.80499999999995,750.769000000000005
